{
  "type": "FeatureCollection",
  "features": [
    {
      "type": "Feature",
      "properties": {
        "norad_id": 66604,
        "name": "STARLINK-35977",
        "group": "last-30-days",
        "lat": 14.23729526394512,
        "lon": 139.21977752917908,
        "alt_km": 441.8528942702278,
        "timestamp": "2025-12-24T16:52:40.177015+00:00",
        "meta_object_name": "STARLINK-35977",
        "meta_object_id": "2025-270S",
        "meta_epoch": "2025-12-23T19:00:18.963360",
        "meta_mean_motion": 15.40738796,
        "meta_eccentricity": 0.0002073,
        "meta_inclination": 43.0011,
        "meta_ra_of_asc_node": 128.6736,
        "meta_arg_of_pericenter": 266.5082,
        "meta_mean_anomaly": 93.5537,
        "meta_ephemeris_type": 0,
        "meta_classification_type": "U",
        "meta_norad_cat_id": 66604,
        "meta_element_set_no": 999,
        "meta_rev_at_epoch": 605,
        "meta_bstar": 0.0011739626,
        "meta_mean_motion_dot": 0.00049117,
        "meta_mean_motion_ddot": 0,
        "tle_line1": "1 66604U 25270S   25357.79188615  .00049117  00000+0  11740-2 0  9991",
        "tle_line2": "2 66604  43.0011 128.6736 0002073 266.5082  93.5537 15.40738796  6050"
      },
      "geometry": {
        "type": "Point",
        "coordinates": [
          139.21977752917908,
          14.23729526394512
        ]
      }
    },
    {
      "type": "Feature",
      "properties": {
        "norad_id": 66605,
        "name": "STARLINK-36052",
        "group": "last-30-days",
        "lat": 42.70530966216289,
        "lon": -138.7581976120377,
        "alt_km": 439.7132376138061,
        "timestamp": "2025-12-24T16:52:40.177025+00:00",
        "meta_object_name": "STARLINK-36052",
        "meta_object_id": "2025-270T",
        "meta_epoch": "2025-12-23T18:40:57.101088",
        "meta_mean_motion": 15.40742025,
        "meta_eccentricity": 0.00041745,
        "meta_inclination": 43.0051,
        "meta_ra_of_asc_node": 128.5705,
        "meta_arg_of_pericenter": 274.749,
        "meta_mean_anomaly": 85.2889,
        "meta_ephemeris_type": 0,
        "meta_classification_type": "U",
        "meta_norad_cat_id": 66605,
        "meta_element_set_no": 999,
        "meta_rev_at_epoch": 605,
        "meta_bstar": 0.0011032825,
        "meta_mean_motion_dot": 0.00046136,
        "meta_mean_motion_ddot": 0,
        "tle_line1": "1 66605U 25270T   25357.77843867  .00046136  00000+0  11033-2 0  9990",
        "tle_line2": "2 66605  43.0051 128.5705 0004174 274.7490  85.2889 15.40742025  6056"
      },
      "geometry": {
        "type": "Point",
        "coordinates": [
          -138.7581976120377,
          42.70530966216289
        ]
      }
    },
    {
      "type": "Feature",
      "properties": {
        "norad_id": 66606,
        "name": "STARLINK-36063",
        "group": "last-30-days",
        "lat": -1.8358199061471092,
        "lon": -55.00074521711096,
        "alt_km": 443.96993515021586,
        "timestamp": "2025-12-24T16:52:40.177036+00:00",
        "meta_object_name": "STARLINK-36063",
        "meta_object_id": "2025-270U",
        "meta_epoch": "2025-12-24T08:00:03.000384",
        "meta_mean_motion": 15.40647073,
        "meta_eccentricity": 0.00014242,
        "meta_inclination": 43.0007,
        "meta_ra_of_asc_node": 125.16,
        "meta_arg_of_pericenter": 265.2346,
        "meta_mean_anomaly": 23.4701,
        "meta_ephemeris_type": 0,
        "meta_classification_type": "U",
        "meta_norad_cat_id": 66606,
        "meta_element_set_no": 999,
        "meta_rev_at_epoch": 610,
        "meta_bstar": 0.0016651706,
        "meta_mean_motion_dot": 0.0006977,
        "meta_mean_motion_ddot": 0,
        "tle_line1": "1 66606U 25270U   25358.33336806  .00069770  00000+0  16652-2 0  9995",
        "tle_line2": "2 66606  43.0007 125.1600 0001424 265.2346  23.4701 15.40647073  6105"
      },
      "geometry": {
        "type": "Point",
        "coordinates": [
          -55.00074521711096,
          -1.8358199061471092
        ]
      }
    },
    {
      "type": "Feature",
      "properties": {
        "norad_id": 66607,
        "name": "STARLINK-35993",
        "group": "last-30-days",
        "lat": 40.29007295267517,
        "lon": -122.25552812252525,
        "alt_km": 439.2331051224646,
        "timestamp": "2025-12-24T16:52:40.177048+00:00",
        "meta_object_name": "STARLINK-35993",
        "meta_object_id": "2025-270V",
        "meta_epoch": "2025-12-23T18:37:43.843296",
        "meta_mean_motion": 15.4077053,
        "meta_eccentricity": 0.00032962,
        "meta_inclination": 43.0018,
        "meta_ra_of_asc_node": 128.5532,
        "meta_arg_of_pericenter": 268.5661,
        "meta_mean_anomaly": 91.4818,
        "meta_ephemeris_type": 0,
        "meta_classification_type": "U",
        "meta_norad_cat_id": 66607,
        "meta_element_set_no": 999,
        "meta_rev_at_epoch": 595,
        "meta_bstar": 0.0015822555,
        "meta_mean_motion_dot": 0.00066533,
        "meta_mean_motion_ddot": 0,
        "tle_line1": "1 66607U 25270V   25357.77620189  .00066533  00000+0  15823-2 0  9996",
        "tle_line2": "2 66607  43.0018 128.5532 0003296 268.5661  91.4818 15.40770530  5955"
      },
      "geometry": {
        "type": "Point",
        "coordinates": [
          -122.25552812252525,
          40.29007295267517
        ]
      }
    },
    {
      "type": "Feature",
      "properties": {
        "norad_id": 66608,
        "name": "STARLINK-36036",
        "group": "last-30-days",
        "lat": -10.249303160491474,
        "lon": -45.81368843526344,
        "alt_km": 444.6497027467958,
        "timestamp": "2025-12-24T16:52:40.177059+00:00",
        "meta_object_name": "STARLINK-36036",
        "meta_object_id": "2025-270W",
        "meta_epoch": "2025-12-24T08:00:03.000384",
        "meta_mean_motion": 15.4065439,
        "meta_eccentricity": 0.00014782,
        "meta_inclination": 43.0007,
        "meta_ra_of_asc_node": 125.1298,
        "meta_arg_of_pericenter": 261.1566,
        "meta_mean_anomaly": 39.9734,
        "meta_ephemeris_type": 0,
        "meta_classification_type": "U",
        "meta_norad_cat_id": 66608,
        "meta_element_set_no": 999,
        "meta_rev_at_epoch": 610,
        "meta_bstar": 0.0017455014,
        "meta_mean_motion_dot": 0.00073202,
        "meta_mean_motion_ddot": 0,
        "tle_line1": "1 66608U 25270W   25358.33336806  .00073202  00000+0  17455-2 0  9994",
        "tle_line2": "2 66608  43.0007 125.1298 0001478 261.1566  39.9734 15.40654390  6106"
      },
      "geometry": {
        "type": "Point",
        "coordinates": [
          -45.81368843526344,
          -10.249303160491474
        ]
      }
    },
    {
      "type": "Feature",
      "properties": {
        "norad_id": 66609,
        "name": "STARLINK-36034",
        "group": "last-30-days",
        "lat": -25.9898208268575,
        "lon": -25.518094452221334,
        "alt_km": 445.9760685355541,
        "timestamp": "2025-12-24T16:52:40.177070+00:00",
        "meta_object_name": "STARLINK-36034",
        "meta_object_id": "2025-270X",
        "meta_epoch": "2025-12-24T08:00:03.000384",
        "meta_mean_motion": 15.40643147,
        "meta_eccentricity": 0.00013904,
        "meta_inclination": 43.0005,
        "meta_ra_of_asc_node": 125.0696,
        "meta_arg_of_pericenter": 274.9619,
        "meta_mean_anomaly": 51.0676,
        "meta_ephemeris_type": 0,
        "meta_classification_type": "U",
        "meta_norad_cat_id": 66609,
        "meta_element_set_no": 999,
        "meta_rev_at_epoch": 610,
        "meta_bstar": 0.0016974831,
        "meta_mean_motion_dot": 0.00071134,
        "meta_mean_motion_ddot": 0,
        "tle_line1": "1 66609U 25270X   25358.33336806  .00071134  00000+0  16975-2 0  9993",
        "tle_line2": "2 66609  43.0005 125.0696 0001390 274.9619  51.0676 15.40643147  6108"
      },
      "geometry": {
        "type": "Point",
        "coordinates": [
          -25.518094452221334,
          -25.9898208268575
        ]
      }
    },
    {
      "type": "Feature",
      "properties": {
        "norad_id": 66610,
        "name": "STARLINK-35680",
        "group": "last-30-days",
        "lat": 29.960204650679124,
        "lon": -95.06329934018032,
        "alt_km": 440.4085444583907,
        "timestamp": "2025-12-24T16:52:40.177080+00:00",
        "meta_object_name": "STARLINK-35680",
        "meta_object_id": "2025-270Y",
        "meta_epoch": "2025-12-24T00:00:00.998784",
        "meta_mean_motion": 15.40682995,
        "meta_eccentricity": 0.0001894,
        "meta_inclination": 43.0005,
        "meta_ra_of_asc_node": 127.2016,
        "meta_arg_of_pericenter": 277.9055,
        "meta_mean_anomaly": 269.859,
        "meta_ephemeris_type": 0,
        "meta_classification_type": "U",
        "meta_norad_cat_id": 66610,
        "meta_element_set_no": 999,
        "meta_rev_at_epoch": 605,
        "meta_bstar": 0.0001957,
        "meta_mean_motion_dot": 7.875e-05,
        "meta_mean_motion_ddot": 0,
        "tle_line1": "1 66610U 25270Y   25358.00001156  .00007875  00000+0  19570-3 0  9992",
        "tle_line2": "2 66610  43.0005 127.2016 0001894 277.9055 269.8590 15.40682995  6058"
      },
      "geometry": {
        "type": "Point",
        "coordinates": [
          -95.06329934018032,
          29.960204650679124
        ]
      }
    }
  ]
}